[
  {
    "COMMENT": "GENERATED VIA SPACETRACK.ORG API",
    "ORIGINATOR": "18 SPCS",
    "NORAD_CAT_ID": "27421",
    "OBJECT_NAME": "SPOT 5",
    "OBJECT_TYPE": "PAYLOAD",
    "CLASSIFICATION_TYPE": "U",
    "INTLDES": "02021A",
    "EPOCH": "2023-06-12 21:35:43",
    "EPOCH_MICROSECONDS": "451808",
    "MEAN_MOTION": "14.52650599",
    "ECCENTRICITY": "0.0135277",
    "INCLINATION": "98.1395",
    "RA_OF_ASC_NODE": "227.028",
    "ARG_OF_PERICENTER": "87.1787",
    "MEAN_ANOMALY": "274.4883",
    "EPHEMERIS_TYPE": "0",
    "ELEMENT_SET_NO": "999",
    "REV_AT_EPOCH": "10298",
    "BSTAR": "0.00009623",
    "MEAN_MOTION_DOT": "0.00000396",
    "MEAN_MOTION_DDOT": "0",
    "FILE": "3931605",
    "TLE_LINE0": "0 SPOT 5",
    "TLE_LINE1": "1 27421U 02021A   23163.89980847  .00000396  00000-0  96230-4 0  9991",
    "TLE_LINE2": "2 27421  98.1395 227.0280 0135277  87.1787 274.4883 14.52650599102989",
    "OBJECT_ID": "2002-021A",
    "OBJECT_NUMBER": "27421",
    "SEMIMAJOR_AXIS": "7095.142",
    "PERIOD": "99.129",
    "APOGEE": "812.987",
    "PERIGEE": "621.026",
    "DECAYED": "0"
  },
  {
    "COMMENT": "GENERATED VIA SPACETRACK.ORG API",
    "ORIGINATOR": "18 SPCS",
    "NORAD_CAT_ID": "27421",
    "OBJECT_NAME": "SPOT 5",
    "OBJECT_TYPE": "PAYLOAD",
    "CLASSIFICATION_TYPE": "U",
    "INTLDES": "02021A",
    "EPOCH": "2023-06-13 04:12:28",
    "EPOCH_MICROSECONDS": "483488",
    "MEAN_MOTION": "14.52650598",
    "ECCENTRICITY": "0.0135277",
    "INCLINATION": "98.1395",
    "RA_OF_ASC_NODE": "227.2955",
    "ARG_OF_PERICENTER": "86.3356",
    "MEAN_ANOMALY": "275.3299",
    "EPHEMERIS_TYPE": "0",
    "ELEMENT_SET_NO": "999",
    "REV_AT_EPOCH": "10306",
    "BSTAR": "0.000086937",
    "MEAN_MOTION_DOT": "0.00000353",
    "MEAN_MOTION_DDOT": "0",
    "FILE": "3931720",
    "TLE_LINE0": "0 SPOT 5",
    "TLE_LINE1": "1 27421U 02021A   23164.17532967  .00000353  00000-0  86937-4 0  9995",
    "TLE_LINE2": "2 27421  98.1395 227.2955 0135277  86.3356 275.3299 14.52650598103063",
    "OBJECT_ID": "2002-021A",
    "OBJECT_NUMBER": "27421",
    "SEMIMAJOR_AXIS": "7095.142",
    "PERIOD": "99.129",
    "APOGEE": "812.987",
    "PERIGEE": "621.026",
    "DECAYED": "0"
  },
  {
    "COMMENT": "GENERATED VIA SPACETRACK.ORG API",
    "ORIGINATOR": "18 SPCS",
    "NORAD_CAT_ID": "27421",
    "OBJECT_NAME": "SPOT 5",
    "OBJECT_TYPE": "PAYLOAD",
    "CLASSIFICATION_TYPE": "U",
    "INTLDES": "02021A",
    "EPOCH": "2023-06-13 04:12:28",
    "EPOCH_MICROSECONDS": "483488",
    "MEAN_MOTION": "14.52650598",
    "ECCENTRICITY": "0.0135277",
    "INCLINATION": "98.1395",
    "RA_OF_ASC_NODE": "227.2955",
    "ARG_OF_PERICENTER": "86.3356",
    "MEAN_ANOMALY": "275.3299",
    "EPHEMERIS_TYPE": "0",
    "ELEMENT_SET_NO": "999",
    "REV_AT_EPOCH": "10302",
    "BSTAR": "0.000086937",
    "MEAN_MOTION_DOT": "0.00000353",
    "MEAN_MOTION_DDOT": "0",
    "FILE": "3932134",
    "TLE_LINE0": "0 SPOT 5",
    "TLE_LINE1": "1 27421U 02021A   23164.17532967  .00000353  00000-0  86937-4 0  9995",
    "TLE_LINE2": "2 27421  98.1395 227.2955 0135277  86.3356 275.3299 14.52650598103029",
    "OBJECT_ID": "2002-021A",
    "OBJECT_NUMBER": "27421",
    "SEMIMAJOR_AXIS": "7095.142",
    "PERIOD": "99.129",
    "APOGEE": "812.987",
    "PERIGEE": "621.026",
    "DECAYED": "0"
  },
  {
    "COMMENT": "GENERATED VIA SPACETRACK.ORG API",
    "ORIGINATOR": "18 SPCS",
    "NORAD_CAT_ID": "27421",
    "OBJECT_NAME": "SPOT 5",
    "OBJECT_TYPE": "PAYLOAD",
    "CLASSIFICATION_TYPE": "U",
    "INTLDES": "02021A",
    "EPOCH": "2023-06-14 03:21:05",
    "EPOCH_MICROSECONDS": "978592",
    "MEAN_MOTION": "14.52651511",
    "ECCENTRICITY": "0.0135258",
    "INCLINATION": "98.1394",
    "RA_OF_ASC_NODE": "228.2315",
    "ARG_OF_PERICENTER": "83.3847",
    "MEAN_ANOMALY": "278.2724",
    "EPHEMERIS_TYPE": "0",
    "ELEMENT_SET_NO": "999",
    "REV_AT_EPOCH": "10320",
    "BSTAR": "0.000089092",
    "MEAN_MOTION_DOT": "0.00000363",
    "MEAN_MOTION_DDOT": "0",
    "FILE": "3932808",
    "TLE_LINE0": "0 SPOT 5",
    "TLE_LINE1": "1 27421U 02021A   23165.13965253  .00000363  00000-0  89092-4 0  9996",
    "TLE_LINE2": "2 27421  98.1394 228.2315 0135258  83.3847 278.2724 14.52651511103201",
    "OBJECT_ID": "2002-021A",
    "OBJECT_NUMBER": "27421",
    "SEMIMAJOR_AXIS": "7095.139",
    "PERIOD": "99.129",
    "APOGEE": "812.971",
    "PERIGEE": "621.036",
    "DECAYED": "0"
  },
  {
    "COMMENT": "GENERATED VIA SPACETRACK.ORG API",
    "ORIGINATOR": "18 SPCS",
    "NORAD_CAT_ID": "27421",
    "OBJECT_NAME": "SPOT 5",
    "OBJECT_TYPE": "PAYLOAD",
    "CLASSIFICATION_TYPE": "U",
    "INTLDES": "02021A",
    "EPOCH": "2023-06-14 03:21:05",
    "EPOCH_MICROSECONDS": "978592",
    "MEAN_MOTION": "14.52651511",
    "ECCENTRICITY": "0.0135258",
    "INCLINATION": "98.1394",
    "RA_OF_ASC_NODE": "228.2315",
    "ARG_OF_PERICENTER": "83.3847",
    "MEAN_ANOMALY": "278.2724",
    "EPHEMERIS_TYPE": "0",
    "ELEMENT_SET_NO": "999",
    "REV_AT_EPOCH": "10316",
    "BSTAR": "0.000089092",
    "MEAN_MOTION_DOT": "0.00000363",
    "MEAN_MOTION_DDOT": "0",
    "FILE": "3932965",
    "TLE_LINE0": "0 SPOT 5",
    "TLE_LINE1": "1 27421U 02021A   23165.13965253  .00000363  00000-0  89092-4 0  9996",
    "TLE_LINE2": "2 27421  98.1394 228.2315 0135258  83.3847 278.2724 14.52651511103166",
    "OBJECT_ID": "2002-021A",
    "OBJECT_NUMBER": "27421",
    "SEMIMAJOR_AXIS": "7095.139",
    "PERIOD": "99.129",
    "APOGEE": "812.971",
    "PERIGEE": "621.036",
    "DECAYED": "0"
  },
  {
    "COMMENT": "GENERATED VIA SPACETRACK.ORG API",
    "ORIGINATOR": "18 SPCS",
    "NORAD_CAT_ID": "27421",
    "OBJECT_NAME": "SPOT 5",
    "OBJECT_TYPE": "PAYLOAD",
    "CLASSIFICATION_TYPE": "U",
    "INTLDES": "02021A",
    "EPOCH": "2023-06-14 21:32:09",
    "EPOCH_MICROSECONDS": "648960",
    "MEAN_MOTION": "14.52652036",
    "ECCENTRICITY": "0.0135244",
    "INCLINATION": "98.1394",
    "RA_OF_ASC_NODE": "228.967",
    "ARG_OF_PERICENTER": "81.0667",
    "MEAN_ANOMALY": "280.5811",
    "EPHEMERIS_TYPE": "0",
    "ELEMENT_SET_NO": "999",
    "REV_AT_EPOCH": "10327",
    "BSTAR": "0.0000849",
    "MEAN_MOTION_DOT": "0.00000343",
    "MEAN_MOTION_DDOT": "0",
    "FILE": "3933215",
    "TLE_LINE0": "0 SPOT 5",
    "TLE_LINE1": "1 27421U 02021A   23165.89733390  .00000343  00000-0  84900-4 0  9995",
    "TLE_LINE2": "2 27421  98.1394 228.9670 0135244  81.0667 280.5811 14.52652036103275",
    "OBJECT_ID": "2002-021A",
    "OBJECT_NUMBER": "27421",
    "SEMIMAJOR_AXIS": "7095.137",
    "PERIOD": "99.129",
    "APOGEE": "812.959",
    "PERIGEE": "621.044",
    "DECAYED": "0"
  },
  {
    "COMMENT": "GENERATED VIA SPACETRACK.ORG API",
    "ORIGINATOR": "18 SPCS",
    "NORAD_CAT_ID": "27421",
    "OBJECT_NAME": "SPOT 5",
    "OBJECT_TYPE": "PAYLOAD",
    "CLASSIFICATION_TYPE": "U",
    "INTLDES": "02021A",
    "EPOCH": "2023-06-15 02:29:43",
    "EPOCH_MICROSECONDS": "361376",
    "MEAN_MOTION": "14.5265224",
    "ECCENTRICITY": "0.0135237",
    "INCLINATION": "98.1394",
    "RA_OF_ASC_NODE": "229.1676",
    "ARG_OF_PERICENTER": "80.4349",
    "MEAN_ANOMALY": "281.2099",
    "EPHEMERIS_TYPE": "0",
    "ELEMENT_SET_NO": "999",
    "REV_AT_EPOCH": "10334",
    "BSTAR": "0.000085001",
    "MEAN_MOTION_DOT": "0.00000344",
    "MEAN_MOTION_DDOT": "0",
    "FILE": "3933359",
    "TLE_LINE0": "0 SPOT 5",
    "TLE_LINE1": "1 27421U 02021A   23166.10397409  .00000344  00000-0  85001-4 0  9991",
    "TLE_LINE2": "2 27421  98.1394 229.1676 0135237  80.4349 281.2099 14.52652240103347",
    "OBJECT_ID": "2002-021A",
    "OBJECT_NUMBER": "27421",
    "SEMIMAJOR_AXIS": "7095.136",
    "PERIOD": "99.129",
    "APOGEE": "812.954",
    "PERIGEE": "621.049",
    "DECAYED": "0"
  },
  {
    "COMMENT": "GENERATED VIA SPACETRACK.ORG API",
    "ORIGINATOR": "18 SPCS",
    "NORAD_CAT_ID": "27421",
    "OBJECT_NAME": "SPOT 5",
    "OBJECT_TYPE": "PAYLOAD",
    "CLASSIFICATION_TYPE": "U",
    "INTLDES": "02021A",
    "EPOCH": "2023-06-15 04:08:54",
    "EPOCH_MICROSECONDS": "595104",
    "MEAN_MOTION": "14.52652348",
    "ECCENTRICITY": "0.0135235",
    "INCLINATION": "98.1394",
    "RA_OF_ASC_NODE": "229.2344",
    "ARG_OF_PERICENTER": "80.224",
    "MEAN_ANOMALY": "281.4197",
    "EPHEMERIS_TYPE": "0",
    "ELEMENT_SET_NO": "999",
    "REV_AT_EPOCH": "10335",
    "BSTAR": "0.00008624",
    "MEAN_MOTION_DOT": "0.00000349",
    "MEAN_MOTION_DDOT": "0",
    "FILE": "3933666",
    "TLE_LINE0": "0 SPOT 5",
    "TLE_LINE1": "1 27421U 02021A   23166.17285411  .00000349  00000-0  86240-4 0  9998",
    "TLE_LINE2": "2 27421  98.1394 229.2344 0135235  80.2240 281.4197 14.52652348103357",
    "OBJECT_ID": "2002-021A",
    "OBJECT_NUMBER": "27421",
    "SEMIMAJOR_AXIS": "7095.136",
    "PERIOD": "99.129",
    "APOGEE": "812.952",
    "PERIGEE": "621.050",
    "DECAYED": "0"
  },
  {
    "COMMENT": "GENERATED VIA SPACETRACK.ORG API",
    "ORIGINATOR": "18 SPCS",
    "NORAD_CAT_ID": "27421",
    "OBJECT_NAME": "SPOT 5",
    "OBJECT_TYPE": "PAYLOAD",
    "CLASSIFICATION_TYPE": "U",
    "INTLDES": "02021A",
    "EPOCH": "2023-06-15 04:08:54",
    "EPOCH_MICROSECONDS": "595104",
    "MEAN_MOTION": "14.52652348",
    "ECCENTRICITY": "0.0135235",
    "INCLINATION": "98.1394",
    "RA_OF_ASC_NODE": "229.2344",
    "ARG_OF_PERICENTER": "80.224",
    "MEAN_ANOMALY": "281.4197",
    "EPHEMERIS_TYPE": "0",
    "ELEMENT_SET_NO": "999",
    "REV_AT_EPOCH": "10331",
    "BSTAR": "0.00008624",
    "MEAN_MOTION_DOT": "0.00000349",
    "MEAN_MOTION_DDOT": "0",
    "FILE": "3933820",
    "TLE_LINE0": "0 SPOT 5",
    "TLE_LINE1": "1 27421U 02021A   23166.17285411  .00000349  00000-0  86240-4 0  9998",
    "TLE_LINE2": "2 27421  98.1394 229.2344 0135235  80.2240 281.4197 14.52652348103313",
    "OBJECT_ID": "2002-021A",
    "OBJECT_NUMBER": "27421",
    "SEMIMAJOR_AXIS": "7095.136",
    "PERIOD": "99.129",
    "APOGEE": "812.952",
    "PERIGEE": "621.050",
    "DECAYED": "0"
  }
]